H1 CPF 01  gfz 2022 06 30 00  6811 terrasarx 
H2 0702601  6201 31698    2022 06 30 00 59 42 2022 07 05 00 00 42   120 1 1  0 0 0
H9
10 0 59760  36702.000000  0    1164356.342   -320996.432   6771041.200
10 0 59760  36822.000000  0    1548508.808  -1140614.951   6603919.960
10 0 59760  36942.000000  0    1891417.078  -1946691.917   6320742.848
10 0 59760  37062.000000  0    2187455.751  -2724380.279   5926456.240
10 0 59760  37182.000000  0    2432068.143  -3459229.100   5427955.996
10 0 59760  37302.000000  0    2621837.521  -4137455.078   4833972.059
10 0 59760  37422.000000  0    2754534.764  -4746205.573   4154921.578
10 0 59760  37542.000000  0    2829142.675  -5273809.178   3402730.172
10 0 59760  37662.000000  0    2845854.543  -5710007.265   2590624.223
10 0 59760  37782.000000  0    2806047.131  -6046161.883   1732896.778
10 0 59760  37902.000000  0    2712227.943  -6275432.302    844651.723
10 0 59760  38022.000000  0    2567960.088  -6392918.580    -58467.077
10 0 59760  38142.000000  0    2377765.017  -6395768.645   -960559.722
10 0 59760  38262.000000  0    2147004.523  -6283242.334  -1845760.748
10 0 59760  38382.000000  0    1881745.928  -6056732.789  -2698525.662
10 0 59760  38502.000000  0    1588613.609  -5719745.613  -3503911.615
10 0 59760  38622.000000  0    1274631.301  -5277832.493  -4247841.184
10 0 59760  38742.000000  0     947061.862  -4738488.090  -4917346.723
10 0 59760  38862.000000  0     613245.567  -4111011.217  -5500791.068
10 0 59760  38982.000000  0     280441.309  -3406334.212  -5988061.798
10 0 59760  39102.000000  0     -44325.866  -2636824.204  -6370735.918
10 0 59760  39222.000000  0    -354407.775  -1816061.452  -6642213.868
10 0 59760  39342.000000  0    -643664.275   -958598.981  -6797822.472
10 0 59760  39462.000000  0    -906580.160    -79707.021  -6834887.328
10 0 59760  39582.000000  0   -1138366.796    804894.040  -6752772.710
10 0 59760  39702.000000  0   -1335047.169   1679307.341  -6552890.821
10 0 59760  39822.000000  0   -1493522.573   2527737.969  -6238679.829
10 0 59760  39942.000000  0   -1611620.861   3334772.143  -5815552.669
10 0 59760  40062.000000  0   -1688125.651   4085654.976  -5290813.411
10 0 59760  40182.000000  0   -1722785.306   4766560.672  -4673542.774
10 0 59760  40302.000000  0   -1716302.288   5364852.169  -3974451.949
10 0 59760  40422.000000  0   -1670301.793   5869322.996  -3205705.415
10 0 59760  40542.000000  0   -1587279.957   6270416.229  -2380716.462
10 0 59760  40662.000000  0   -1470533.410   6560417.296  -1513917.578
10 0 59760  40782.000000  0   -1324070.684   6733613.554   -620507.632
10 0 59760  40902.000000  0   -1152507.826   6786416.959    283816.916
10 0 59760  41022.000000  0    -960949.935   6717447.315   1183144.725
10 0 59760  41142.000000  0    -754862.191   6527569.426   2061640.623
10 0 59760  41262.000000  0    -539933.384   6219881.886   2903833.921
10 0 59760  41382.000000  0    -321935.809   5799662.322   3694897.200
10 0 59760  41502.000000  0    -106585.754   5274271.369   4420912.024
10 0 59760  41622.000000  0     100592.831   4653015.440   5069120.394
10 0 59760  41742.000000  0     294399.446   3946967.540   5628147.042
10 0 59760  41862.000000  0     470077.424   3168763.077   6088194.561
10 0 59760  41982.000000  0     623421.755   2332365.218   6441211.557
10 0 59760  42102.000000  0     750872.403   1452808.538   6681027.037
10 0 59760  42222.000000  0     849591.652    545924.992   6803452.493
10 0 59760  42342.000000  0     917523.934   -371941.520   6806349.603
10 0 59760  42462.000000  0     953437.250  -1284228.513   6689666.389
10 0 59760  42582.000000  0     956945.456  -2174453.706   6455438.626
10 0 59760  42702.000000  0     928511.092  -3026512.916   6107757.215
10 0 59760  42822.000000  0     869428.225  -3824973.747   5652700.192
10 0 59760  42942.000000  0     781786.370  -4555356.700   5098230.445
10 0 59760  43062.000000  0     668416.952  -5204401.544   4454063.209
10 0 59760  43182.000000  0     532822.106  -5760316.504   3731502.458
10 0 59760  43302.000000  0     379086.596  -6213003.172   2943245.429
10 0 59760  43422.000000  0     211775.226  -6554250.343   2103159.347
10 0 59760  43542.000000  0      35817.731  -6777891.713   1226035.003
10 0 59760  43662.000000  0    -143615.302  -6879926.451    327321.843
10 0 59760  43782.000000  0    -321243.882  -6858596.279   -577153.789
10 0 59760  43902.000000  0    -491812.263  -6714414.957  -1471477.483
10 0 59760  44022.000000  0    -650221.541  -6450151.642  -2339934.891
10 0 59760  44142.000000  0    -791658.314  -6070770.742  -3167293.980
10 0 59760  44262.000000  0    -911716.456  -5583328.768  -3939076.723
10 0 59760  44382.000000  0   -1006508.601  -4996830.255  -4641813.582
10 0 59760  44502.000000  0   -1072764.596  -4322048.373  -5263274.575
10 0 59760  44622.000000  0   -1107915.174  -3571316.185  -5792674.878
10 0 59760  44742.000000  0   -1110158.877  -2758292.868  -6220852.557
10 0 59760  44862.000000  0   -1078511.376  -1897709.683  -6540416.232
10 0 59760  44982.000000  0   -1012836.595  -1005101.556  -6745860.957
10 0 59760  45102.000000  0    -913859.642    -96529.199  -6833653.338
10 0 59760  45222.000000  0    -783160.506    811704.924  -6802285.064
10 0 59760  45342.000000  0    -623148.922   1703341.414  -6652295.344
10 0 59760  45462.000000  0    -437021.673   2562447.371  -6386262.635
10 0 59760  45582.000000  0    -228702.140   3373694.942  -6008766.462
10 0 59760  45702.000000  0      -2761.950   4122632.633  -5526317.574
10 0 59760  45822.000000  0     235673.252   4795942.585  -4947255.686
10 0 59760  45942.000000  0     481032.132   5381681.725  -4281617.305
10 0 59760  46062.000000  0     727418.978   5869502.048  -3540972.033
10 0 59760  46182.000000  0     968745.548   6250843.883  -2738229.518
10 0 59760  46302.000000  0    1198870.695   6519098.496  -1887419.829
10 0 59760  46422.000000  0    1411744.770   6669735.525  -1003449.461
10 0 59760  46542.000000  0    1601555.393   6700390.741   -101837.233
10 0 59760  46662.000000  0    1762870.563   6610910.211    801564.419
10 0 59760  46782.000000  0    1890774.597   6403350.292   1690855.500
10 0 59760  46902.000000  0    1980994.593   6081933.982   2550376.283
10 0 59760  47022.000000  0    2030013.922   5652964.065   3364990.821
10 0 59760  47142.000000  0    2035169.664   5124695.550   4120361.069
10 0 59760  47262.000000  0    1994730.604   4507168.981   4803204.883
10 0 59760  47382.000000  0    1907955.224   3812008.236   5401532.163
10 0 59760  47502.000000  0    1775127.178   3052191.715   5904851.115
10 0 59760  47622.000000  0    1597569.871   2241804.025   6304347.930
10 0 59760  47742.000000  0    1377638.261   1395768.983   6593036.530
10 0 59760  47862.000000  0    1118688.649    529570.241   6765874.091
10 0 59760  47982.000000  0     825027.338   -341032.417   6819842.516
10 0 59760  48102.000000  0     501838.947  -1200288.541   6753999.363
10 0 59760  48222.000000  0     155094.671  -2032742.306   6569493.857
10 0 59760  48342.000000  0    -208558.118  -2823510.511   6269548.072
10 0 59760  48462.000000  0    -581922.328  -3558550.118   5859402.703
10 0 59760  48582.000000  0    -957390.655  -4224908.092   5346228.982
10 0 59760  48702.000000  0   -1327097.356  -4810952.662   4739011.447
10 0 59760  48822.000000  0   -1683081.532  -5306584.728   4048398.759
10 0 59760  48942.000000  0   -2017456.777  -5703422.309   3286520.530
10 0 59760  49062.000000  0   -2322583.589  -5994951.227   2466774.565
10 0 59760  49182.000000  0   -2591240.447  -6176639.303   1603589.563
10 0 59760  49302.000000  0   -2816788.894  -6246012.443    712166.622
10 0 59760  49422.000000  0   -2993328.814  -6202689.786   -191795.411
10 0 59760  49542.000000  0   -3115839.841  -6048376.701  -1092384.869
10 0 59760  49662.000000  0   -3180305.476  -5786815.406  -1973766.397
10 0 59760  49782.000000  0   -3183816.771  -5423694.495  -2820467.427
10 0 59760  49902.000000  0   -3124652.765  -4966519.969  -3617655.961
10 0 59760  50022.000000  0   -3002335.299  -4424451.357  -4351402.679
10 0 59760  50142.000000  0   -2817657.925  -3808109.115  -5008921.955
10 0 59760  50262.000000  0   -2572689.349  -3129358.472  -5578788.845
10 0 59760  50382.000000  0   -2270751.866  -2401074.616  -6051129.086
10 0 59760  50502.000000  0   -1916374.692  -1636894.518  -6417780.199
10 0 59760  50622.000000  0   -1515223.252   -850960.103  -6672421.186
10 0 59760  50742.000000  0   -1074007.573    -57658.388  -6810669.769
10 0 59760  50862.000000  0    -600371.243    728636.621  -6830148.793
10 0 59760  50982.000000  0    -102761.093   1493817.612  -6730522.725
10 0 59760  51102.000000  0     409718.897   2224290.213  -6513502.584
10 0 59760  51222.000000  0     927469.500   2907209.462  -6182822.039
10 0 59760  51342.000000  0    1440572.687   3530703.517  -5744180.118
10 0 59760  51462.000000  0    1938977.183   4084079.643  -5205151.982
10 0 59760  51582.000000  0    2412692.461   4558010.289  -4575069.923
10 0 59760  51702.000000  0    2851987.464   4944696.943  -3864872.818
10 0 59760  51822.000000  0    3247589.600   5238006.650  -3086925.204
10 0 59760  51942.000000  0    3590881.105   5433578.755  -2254808.999
10 0 59760  52062.000000  0    3874087.552   5528897.879  -1383088.993
10 0 59760  52182.000000  0    4090453.101   5523331.500   -487057.072
10 0 59760  52302.000000  0    4234398.117   5418130.121    417540.779
10 0 59760  52422.000000  0    4301655.101   5216388.684   1314788.429
10 0 59760  52542.000000  0    4289377.897   4922970.277   2188886.978
10 0 59760  52662.000000  0    4196224.418   4544397.225   3024441.296
10 0 59760  52782.000000  0    4022406.870   4088705.921   3806741.047
10 0 59760  52902.000000  0    3769709.311   3565272.954   4522023.903
10 0 59760  53022.000000  0    3441475.740   2984618.146   5157720.166
10 0 59760  53142.000000  0    3042563.354   2358187.718   5702675.975
99
